{
  "type": "FeatureCollection",
  "features": [
    {
      "type": "Feature",
      "properties": {
        "norad_id": 30349,
        "name": "FENGYUN 1C DEB",
        "group": "fengyun-1c-debris",
        "lat": 22.637563376438028,
        "lon": -63.10980477014093,
        "alt_km": 792.8182746658213,
        "timestamp": "2025-12-03T15:48:03.347129+00:00",
        "meta_object_name": "FENGYUN 1C DEB",
        "meta_object_id": "1999-025ABL",
        "meta_epoch": "2025-12-02T21:16:29.106336",
        "meta_mean_motion": 14.10977501,
        "meta_eccentricity": 0.008959,
        "meta_inclination": 98.5832,
        "meta_ra_of_asc_node": 299.7636,
        "meta_arg_of_pericenter": 39.8221,
        "meta_mean_anomaly": 24.6334,
        "meta_ephemeris_type": 0,
        "meta_classification_type": "U",
        "meta_norad_cat_id": 30349,
        "meta_element_set_no": 999,
        "meta_rev_at_epoch": 96092,
        "meta_bstar": 0.0027230411,
        "meta_mean_motion_dot": 5.039e-05,
        "meta_mean_motion_ddot": 0,
        "tle_line1": "1 30349U 99025ABL 25336.88644799  .00005039  00000+0  27230-2 0  9990",
        "tle_line2": "2 30349  98.5832 299.7636 0089590  39.8221  24.6334 14.10977501960927"
      },
      "geometry": {
        "type": "Point",
        "coordinates": [
          -63.10980477014093,
          22.637563376438028
        ]
      }
    },
    {
      "type": "Feature",
      "properties": {
        "norad_id": 30350,
        "name": "FENGYUN 1C DEB",
        "group": "fengyun-1c-debris",
        "lat": 16.194308526283706,
        "lon": -20.341859451343073,
        "alt_km": 1113.164211773792,
        "timestamp": "2025-12-03T15:48:03.347138+00:00",
        "meta_object_name": "FENGYUN 1C DEB",
        "meta_object_id": "1999-025ABM",
        "meta_epoch": "2025-12-03T01:44:09.083040",
        "meta_mean_motion": 13.82785244,
        "meta_eccentricity": 0.02195394,
        "meta_inclination": 98.0929,
        "meta_ra_of_asc_node": 156.7855,
        "meta_arg_of_pericenter": 335.4203,
        "meta_mean_anomaly": 152.8114,
        "meta_ephemeris_type": 0,
        "meta_classification_type": "U",
        "meta_norad_cat_id": 30350,
        "meta_element_set_no": 999,
        "meta_rev_at_epoch": 94848,
        "meta_bstar": 0.00083319542,
        "meta_mean_motion_dot": 1.055e-05,
        "meta_mean_motion_ddot": 0,
        "tle_line1": "1 30350U 99025ABM 25337.07232735  .00001055  00000+0  83320-3 0  9994",
        "tle_line2": "2 30350  98.0929 156.7855 0219539 335.4203 152.8114 13.82785244948485"
      },
      "geometry": {
        "type": "Point",
        "coordinates": [
          -20.341859451343073,
          16.194308526283706
        ]
      }
    },
    {
      "type": "Feature",
      "properties": {
        "norad_id": 30352,
        "name": "FENGYUN 1C DEB",
        "group": "fengyun-1c-debris",
        "lat": -13.506386558065033,
        "lon": 1.1307681196206796,
        "alt_km": 851.7144943237236,
        "timestamp": "2025-12-03T15:48:03.347148+00:00",
        "meta_object_name": "FENGYUN 1C DEB",
        "meta_object_id": "1999-025ABP",
        "meta_epoch": "2025-12-03T00:38:43.004832",
        "meta_mean_motion": 14.07573037,
        "meta_eccentricity": 0.00282233,
        "meta_inclination": 98.765,
        "meta_ra_of_asc_node": 358.3944,
        "meta_arg_of_pericenter": 347.1672,
        "meta_mean_anomaly": 41.15,
        "meta_ephemeris_type": 0,
        "meta_classification_type": "U",
        "meta_norad_cat_id": 30352,
        "meta_element_set_no": 999,
        "meta_rev_at_epoch": 96774,
        "meta_bstar": 0.00019907334,
        "meta_mean_motion_dot": 2.94e-06,
        "meta_mean_motion_ddot": 0,
        "tle_line1": "1 30352U 99025ABP 25337.02688663  .00000294  00000+0  19907-3 0  9990",
        "tle_line2": "2 30352  98.7650 358.3944 0028223 347.1672  41.1500 14.07573037967744"
      },
      "geometry": {
        "type": "Point",
        "coordinates": [
          1.1307681196206796,
          -13.506386558065033
        ]
      }
    },
    {
      "type": "Feature",
      "properties": {
        "norad_id": 30355,
        "name": "FENGYUN 1C DEB",
        "group": "fengyun-1c-debris",
        "lat": -28.87229802359716,
        "lon": -12.9260674649682,
        "alt_km": 796.8447945906646,
        "timestamp": "2025-12-03T15:48:03.347157+00:00",
        "meta_object_name": "FENGYUN 1C DEB",
        "meta_object_id": "1999-025ABS",
        "meta_epoch": "2025-12-02T06:09:21.187872",
        "meta_mean_motion": 14.18773726,
        "meta_eccentricity": 0.0053562,
        "meta_inclination": 98.5889,
        "meta_ra_of_asc_node": 340.9358,
        "meta_arg_of_pericenter": 340.0272,
        "meta_mean_anomaly": 34.7296,
        "meta_ephemeris_type": 0,
        "meta_classification_type": "U",
        "meta_norad_cat_id": 30355,
        "meta_element_set_no": 999,
        "meta_rev_at_epoch": 97202,
        "meta_bstar": 0.00084805,
        "meta_mean_motion_dot": 1.745e-05,
        "meta_mean_motion_ddot": 0,
        "tle_line1": "1 30355U 99025ABS 25336.25649523  .00001745  00000+0  84805-3 0  9990",
        "tle_line2": "2 30355  98.5889 340.9358 0053562 340.0272  34.7296 14.18773726972023"
      },
      "geometry": {
        "type": "Point",
        "coordinates": [
          -12.9260674649682,
          -28.87229802359716
        ]
      }
    },
    {
      "type": "Feature",
      "properties": {
        "norad_id": 30356,
        "name": "FENGYUN 1C DEB",
        "group": "fengyun-1c-debris",
        "lat": -39.32624585095575,
        "lon": -19.635625795348194,
        "alt_km": 817.9500033219074,
        "timestamp": "2025-12-03T15:48:03.347166+00:00",
        "meta_object_name": "FENGYUN 1C DEB",
        "meta_object_id": "1999-025ABT",
        "meta_epoch": "2025-12-02T23:14:57.016608",
        "meta_mean_motion": 14.1299114,
        "meta_eccentricity": 0.00522549,
        "meta_inclination": 98.6811,
        "meta_ra_of_asc_node": 332.5053,
        "meta_arg_of_pericenter": 317.0615,
        "meta_mean_anomaly": 96.9476,
        "meta_ephemeris_type": 0,
        "meta_classification_type": "U",
        "meta_norad_cat_id": 30356,
        "meta_element_set_no": 999,
        "meta_rev_at_epoch": 96883,
        "meta_bstar": 0.00090985034,
        "meta_mean_motion_dot": 1.676e-05,
        "meta_mean_motion_ddot": 0,
        "tle_line1": "1 30356U 99025ABT 25336.96871547  .00001676  00000+0  90985-3 0  9991",
        "tle_line2": "2 30356  98.6811 332.5053 0052254 317.0615  96.9476 14.12991140968831"
      },
      "geometry": {
        "type": "Point",
        "coordinates": [
          -19.635625795348194,
          -39.32624585095575
        ]
      }
    },
    {
      "type": "Feature",
      "properties": {
        "norad_id": 30357,
        "name": "FENGYUN 1C DEB",
        "group": "fengyun-1c-debris",
        "lat": 39.517331677363075,
        "lon": -2.1775276732686106,
        "alt_km": 846.9395366152112,
        "timestamp": "2025-12-03T15:48:03.347175+00:00",
        "meta_object_name": "FENGYUN 1C DEB",
        "meta_object_id": "1999-025ABU",
        "meta_epoch": "2025-12-03T00:22:18.047424",
        "meta_mean_motion": 14.05255163,
        "meta_eccentricity": 0.00492669,
        "meta_inclination": 98.8073,
        "meta_ra_of_asc_node": 4.5453,
        "meta_arg_of_pericenter": 357.5522,
        "meta_mean_anomaly": 31.7181,
        "meta_ephemeris_type": 0,
        "meta_classification_type": "U",
        "meta_norad_cat_id": 30357,
        "meta_element_set_no": 999,
        "meta_rev_at_epoch": 96670,
        "meta_bstar": 0.00032733426,
        "meta_mean_motion_dot": 4.92e-06,
        "meta_mean_motion_ddot": 0,
        "tle_line1": "1 30357U 99025ABU 25337.01548666  .00000492  00000+0  32733-3 0  9994",
        "tle_line2": "2 30357  98.8073   4.5453 0049266 357.5522  31.7181 14.05255163966703"
      },
      "geometry": {
        "type": "Point",
        "coordinates": [
          -2.1775276732686106,
          39.517331677363075
        ]
      }
    },
    {
      "type": "Feature",
      "properties": {
        "norad_id": 30358,
        "name": "FENGYUN 1C DEB",
        "group": "fengyun-1c-debris",
        "lat": -67.53191304266629,
        "lon": -171.59674818653903,
        "alt_km": 805.0035650281216,
        "timestamp": "2025-12-03T15:48:03.347184+00:00",
        "meta_object_name": "FENGYUN 1C DEB",
        "meta_object_id": "1999-025ABV",
        "meta_epoch": "2025-12-03T03:10:47.566272",
        "meta_mean_motion": 14.20543291,
        "meta_eccentricity": 0.00829937,
        "meta_inclination": 98.554,
        "meta_ra_of_asc_node": 166.5522,
        "meta_arg_of_pericenter": 227.4763,
        "meta_mean_anomaly": 254.7679,
        "meta_ephemeris_type": 0,
        "meta_classification_type": "U",
        "meta_norad_cat_id": 30358,
        "meta_element_set_no": 999,
        "meta_rev_at_epoch": 96781,
        "meta_bstar": 0.002636199,
        "meta_mean_motion_dot": 5.826e-05,
        "meta_mean_motion_ddot": 0,
        "tle_line1": "1 30358U 99025ABV 25337.13249498  .00005826  00000+0  26362-2 0  9995",
        "tle_line2": "2 30358  98.5540 166.5522 0082993 227.4763 254.7679 14.20543291967813"
      },
      "geometry": {
        "type": "Point",
        "coordinates": [
          -171.59674818653903,
          -67.53191304266629
        ]
      }
    }
  ]
}